{
"type": "FeatureCollection",
"name": "malls-points",
"crs": { "type": "name", "properties": { "name": "urn:ogc:def:crs:OGC:1.3:CRS84" } },
"features": [
{ "type": "Feature", "properties": { "full_id": "n353574296", "osm_id": "353574296", "osm_type": "node", "addr:city": "jakarta pusat", "addr:housenumber": "no. 4", "addr:postcode": "10330", "addr:street": "Jalan Cikini Raya", "name": "Menteng Huis", "shop": "mall", "barrier": "", "entrance": "", "opening_hours": "", "phone": "", "access": "", "addr:place": "", "automatic_door": "", "wheelchair": "", "amenity": "", "parking": "", "fee": "", "operator": "", "supervised": "", "name:en": "" }, "geometry": { "type": "Point", "coordinates": [ 106.8364044, -6.1878007 ] } },
{ "type": "Feature", "properties": { "full_id": "n1363623473", "osm_id": "1363623473", "osm_type": "node", "addr:city": "", "addr:housenumber": "", "addr:postcode": "", "addr:street": "", "name": "", "shop": "", "barrier": "gate", "entrance": "", "opening_hours": "", "phone": "", "access": "", "addr:place": "", "automatic_door": "", "wheelchair": "", "amenity": "", "parking": "", "fee": "", "operator": "", "supervised": "", "name:en": "" }, "geometry": { "type": "Point", "coordinates": [ 106.8917812, -6.1499932 ] } },
{ "type": "Feature", "properties": { "full_id": "n1363624026", "osm_id": "1363624026", "osm_type": "node", "addr:city": "", "addr:housenumber": "", "addr:postcode": "", "addr:street": "", "name": "Mall of Indonesia (Main Entrance)", "shop": "", "barrier": "entrance", "entrance": "", "opening_hours": "", "phone": "", "access": "", "addr:place": "", "automatic_door": "", "wheelchair": "", "amenity": "", "parking": "", "fee": "", "operator": "", "supervised": "", "name:en": "" }, "geometry": { "type": "Point", "coordinates": [ 106.8917658, -6.1515153 ] } },
{ "type": "Feature", "properties": { "full_id": "n2821484922", "osm_id": "2821484922", "osm_type": "node", "addr:city": "", "addr:housenumber": "", "addr:postcode": "", "addr:street": "", "name": "Central Park Mall Lumina Lobby", "shop": "", "barrier": "", "entrance": "yes", "opening_hours": "", "phone": "", "access": "", "addr:place": "", "automatic_door": "", "wheelchair": "", "amenity": "", "parking": "", "fee": "", "operator": "", "supervised": "", "name:en": "" }, "geometry": { "type": "Point", "coordinates": [ 106.7911223, -6.1759888 ] } },
{ "type": "Feature", "properties": { "full_id": "n2821484928", "osm_id": "2821484928", "osm_type": "node", "addr:city": "", "addr:housenumber": "", "addr:postcode": "", "addr:street": "", "name": "", "shop": "", "barrier": "", "entrance": "entrance", "opening_hours": "", "phone": "", "access": "", "addr:place": "", "automatic_door": "", "wheelchair": "", "amenity": "", "parking": "", "fee": "", "operator": "", "supervised": "", "name:en": "" }, "geometry": { "type": "Point", "coordinates": [ 106.7911797, -6.1768506 ] } },
{ "type": "Feature", "properties": { "full_id": "n4146314225", "osm_id": "4146314225", "osm_type": "node", "addr:city": "East Jakarta", "addr:housenumber": "Nomor. 1 RT.8\/RW.4", "addr:postcode": "13220", "addr:street": "Jl. Pemuda", "name": "Rabbani - Rawamangun", "shop": "mall", "barrier": "", "entrance": "", "opening_hours": "08:00-21:00", "phone": "(021) 47885007", "access": "", "addr:place": "", "automatic_door": "", "wheelchair": "", "amenity": "", "parking": "", "fee": "", "operator": "", "supervised": "", "name:en": "" }, "geometry": { "type": "Point", "coordinates": [ 106.8843726, -6.1930627 ] } },
{ "type": "Feature", "properties": { "full_id": "n4146450482", "osm_id": "4146450482", "osm_type": "node", "addr:city": "Petojo Utara, Gambir, Central Jakarta", "addr:housenumber": "No. 19 - 26", "addr:postcode": "10130", "addr:street": "Jalan Gajah Mada", "name": "Gajah Mada Plaza (Main Entrance)", "shop": "mall", "barrier": "", "entrance": "", "opening_hours": "", "phone": "", "access": "", "addr:place": "", "automatic_door": "", "wheelchair": "", "amenity": "", "parking": "", "fee": "", "operator": "", "supervised": "", "name:en": "" }, "geometry": { "type": "Point", "coordinates": [ 106.8189068, -6.1604377 ] } },
{ "type": "Feature", "properties": { "full_id": "n4146953112", "osm_id": "4146953112", "osm_type": "node", "addr:city": "Pluit, North Jakarta", "addr:housenumber": "", "addr:postcode": "14440", "addr:street": "Jalan Pluit Selatan Raya", "name": "Emporium Pluit Mall Side Entrance", "shop": "mall", "barrier": "", "entrance": "gate", "opening_hours": "", "phone": "", "access": "customers", "addr:place": "CBD Pluit Area", "automatic_door": "", "wheelchair": "", "amenity": "", "parking": "", "fee": "", "operator": "", "supervised": "", "name:en": "" }, "geometry": { "type": "Point", "coordinates": [ 106.7903586, -6.1267995 ] } },
{ "type": "Feature", "properties": { "full_id": "n4146957523", "osm_id": "4146957523", "osm_type": "node", "addr:city": "Pluit, North Jakarta", "addr:housenumber": "", "addr:postcode": "14440", "addr:street": "Jalan Pluit Selatan Raya", "name": "Emporium Pluit Mall Back Entrance", "shop": "mall", "barrier": "lift_gate", "entrance": "gate", "opening_hours": "", "phone": "", "access": "customers", "addr:place": "CBD Pluit Area", "automatic_door": "", "wheelchair": "", "amenity": "", "parking": "", "fee": "", "operator": "", "supervised": "", "name:en": "" }, "geometry": { "type": "Point", "coordinates": [ 106.7898839, -6.1291623 ] } },
{ "type": "Feature", "properties": { "full_id": "n4146959210", "osm_id": "4146959210", "osm_type": "node", "addr:city": "Pluit, North Jakarta", "addr:housenumber": "CBD Pluit Area", "addr:postcode": "14440", "addr:street": "Pluit Selatan Raya", "name": "Emporium Pluit Mall Front Entrance", "shop": "mall", "barrier": "", "entrance": "", "opening_hours": "", "phone": "", "access": "", "addr:place": "", "automatic_door": "", "wheelchair": "", "amenity": "", "parking": "", "fee": "", "operator": "", "supervised": "", "name:en": "" }, "geometry": { "type": "Point", "coordinates": [ 106.7917124, -6.1274571 ] } },
{ "type": "Feature", "properties": { "full_id": "n4148241807", "osm_id": "4148241807", "osm_type": "node", "addr:city": "RT.13\/RW.8, West Jakarta", "addr:housenumber": "No.126, RT.13\/RW.8", "addr:postcode": "11130", "addr:street": "Jl. Gajahmada No.126", "name": "Grand Paragon", "shop": "mall", "barrier": "", "entrance": "", "opening_hours": "", "phone": "", "access": "", "addr:place": "", "automatic_door": "", "wheelchair": "", "amenity": "", "parking": "", "fee": "", "operator": "", "supervised": "", "name:en": "" }, "geometry": { "type": "Point", "coordinates": [ 106.8170007, -6.1518293 ] } },
{ "type": "Feature", "properties": { "full_id": "n4148283888", "osm_id": "4148283888", "osm_type": "node", "addr:city": "Tomang, Grogol, Central Jakarta", "addr:housenumber": "", "addr:postcode": "11470", "addr:street": "Jl. Letjen. S. Parman Kav. 28", "name": "Central Park Mall (Laguna Lobby)", "shop": "", "barrier": "", "entrance": "yes", "opening_hours": "", "phone": "", "access": "", "addr:place": "", "automatic_door": "", "wheelchair": "", "amenity": "", "parking": "", "fee": "", "operator": "", "supervised": "", "name:en": "" }, "geometry": { "type": "Point", "coordinates": [ 106.7913684, -6.1781941 ] } },
{ "type": "Feature", "properties": { "full_id": "n4148382089", "osm_id": "4148382089", "osm_type": "node", "addr:city": "RT.3\/RW.2, Rawajati, Pancoran, South Jakarta", "addr:housenumber": "", "addr:postcode": "12740", "addr:street": "Jl. Kalibata Raya No.1", "name": "Plaza Kalibata", "shop": "mall", "barrier": "", "entrance": "", "opening_hours": "", "phone": "", "access": "", "addr:place": "", "automatic_door": "", "wheelchair": "", "amenity": "", "parking": "", "fee": "", "operator": "", "supervised": "", "name:en": "" }, "geometry": { "type": "Point", "coordinates": [ 106.8570045, -6.2573238 ] } },
{ "type": "Feature", "properties": { "full_id": "n4148556005", "osm_id": "4148556005", "osm_type": "node", "addr:city": "East Kuningan, Central Jakarta", "addr:housenumber": "No.3", "addr:postcode": "12950", "addr:street": "Jl. Mega Kuningan Barat", "name": "Bellagio Boutique Mall", "shop": "mall", "barrier": "", "entrance": "", "opening_hours": "", "phone": "", "access": "", "addr:place": "", "automatic_door": "", "wheelchair": "", "amenity": "", "parking": "", "fee": "", "operator": "", "supervised": "", "name:en": "" }, "geometry": { "type": "Point", "coordinates": [ 106.8243968, -6.2274301 ] } },
{ "type": "Feature", "properties": { "full_id": "n4148676903", "osm_id": "4148676903", "osm_type": "node", "addr:city": "Rawamangun, Pulo Gadung, East Jakarta", "addr:housenumber": "", "addr:postcode": "13220", "addr:street": "Jl. Pemuda Kav. 3-4", "name": "Arion Mall", "shop": "mall", "barrier": "", "entrance": "", "opening_hours": "", "phone": "", "access": "", "addr:place": "", "automatic_door": "", "wheelchair": "", "amenity": "", "parking": "", "fee": "", "operator": "", "supervised": "", "name:en": "" }, "geometry": { "type": "Point", "coordinates": [ 106.8905491, -6.1938209 ] } },
{ "type": "Feature", "properties": { "full_id": "n4148837498", "osm_id": "4148837498", "osm_type": "node", "addr:city": "West Jakarta", "addr:housenumber": "No. 33", "addr:postcode": "11320", "addr:street": "Jl. Prof. Dr. Latumenten, Jembatan Besi, Tambora, Daerah Khusus Ibukota Jakarta", "name": "Seasons City (Main Entrance)", "shop": "mall", "barrier": "", "entrance": "", "opening_hours": "", "phone": "", "access": "", "addr:place": "", "automatic_door": "", "wheelchair": "", "amenity": "", "parking": "", "fee": "", "operator": "", "supervised": "", "name:en": "" }, "geometry": { "type": "Point", "coordinates": [ 106.7953758, -6.153106 ] } },
{ "type": "Feature", "properties": { "full_id": "n4150281840", "osm_id": "4150281840", "osm_type": "node", "addr:city": "East Jakarta", "addr:housenumber": "RT.6\/RW.12", "addr:postcode": "13330", "addr:street": "Jl. MT Haryono", "name": "M.T. Haryono Square", "shop": "mall", "barrier": "", "entrance": "", "opening_hours": "", "phone": "", "access": "", "addr:place": "", "automatic_door": "", "wheelchair": "", "amenity": "", "parking": "", "fee": "", "operator": "", "supervised": "", "name:en": "" }, "geometry": { "type": "Point", "coordinates": [ 106.8689193, -6.2437083 ] } },
{ "type": "Feature", "properties": { "full_id": "n4150307223", "osm_id": "4150307223", "osm_type": "node", "addr:city": "North Jakarta", "addr:housenumber": "", "addr:postcode": "14240", "addr:street": "Jl. Boulevard Bar. Raya", "name": "Hypermart Kelapa Gading Trade Center", "shop": "mall", "barrier": "", "entrance": "", "opening_hours": "", "phone": "", "access": "", "addr:place": "", "automatic_door": "", "wheelchair": "", "amenity": "", "parking": "", "fee": "", "operator": "", "supervised": "", "name:en": "" }, "geometry": { "type": "Point", "coordinates": [ 106.8928678, -6.1550261 ] } },
{ "type": "Feature", "properties": { "full_id": "n4150440330", "osm_id": "4150440330", "osm_type": "node", "addr:city": "Central Jakarta", "addr:housenumber": "Kav. 1", "addr:postcode": "10640", "addr:street": "Jalan Letjen. R. Suprapto", "name": "ITC Cempaka Mas Main Entrance", "shop": "mall", "barrier": "", "entrance": "", "opening_hours": "", "phone": "", "access": "", "addr:place": "", "automatic_door": "", "wheelchair": "", "amenity": "", "parking": "", "fee": "", "operator": "", "supervised": "", "name:en": "" }, "geometry": { "type": "Point", "coordinates": [ 106.8773702, -6.1657047 ] } },
{ "type": "Feature", "properties": { "full_id": "n4150442843", "osm_id": "4150442843", "osm_type": "node", "addr:city": "Central Jakarta", "addr:housenumber": "", "addr:postcode": "10210", "addr:street": "JL. KH. Samanhudi", "name": "Pasar Jaya. PD", "shop": "mall", "barrier": "", "entrance": "", "opening_hours": "", "phone": "", "access": "", "addr:place": "", "automatic_door": "", "wheelchair": "", "amenity": "", "parking": "", "fee": "", "operator": "", "supervised": "", "name:en": "" }, "geometry": { "type": "Point", "coordinates": [ 106.8329893, -6.1611197 ] } },
{ "type": "Feature", "properties": { "full_id": "n4150658564", "osm_id": "4150658564", "osm_type": "node", "addr:city": "South Jakarta", "addr:housenumber": "No. 39", "addr:postcode": "12510", "addr:street": "Jalan Warung Jati Barat", "name": "Pejaten Village", "shop": "mall", "barrier": "", "entrance": "", "opening_hours": "", "phone": "", "access": "", "addr:place": "", "automatic_door": "", "wheelchair": "", "amenity": "", "parking": "", "fee": "", "operator": "", "supervised": "", "name:en": "" }, "geometry": { "type": "Point", "coordinates": [ 106.8287068, -6.2801864 ] } },
{ "type": "Feature", "properties": { "full_id": "n4150891445", "osm_id": "4150891445", "osm_type": "node", "addr:city": "South Jakarta", "addr:housenumber": "Kav. X - 7 No.6", "addr:postcode": "12940", "addr:street": "Jalan HR Rasuna Said", "name": "Plaza 89", "shop": "mall", "barrier": "", "entrance": "", "opening_hours": "", "phone": "", "access": "", "addr:place": "", "automatic_door": "", "wheelchair": "", "amenity": "", "parking": "", "fee": "", "operator": "", "supervised": "", "name:en": "" }, "geometry": { "type": "Point", "coordinates": [ 106.8307718, -6.2177986 ] } },
{ "type": "Feature", "properties": { "full_id": "n4150989116", "osm_id": "4150989116", "osm_type": "node", "addr:city": "RW.5, Ancol, Pademangan, North Jakarta", "addr:housenumber": "No.8", "addr:postcode": "14430", "addr:street": "Jl. Mangga Dua Raya", "name": "WTC Mangga Dua Side Entrance", "shop": "mall", "barrier": "", "entrance": "", "opening_hours": "", "phone": "", "access": "", "addr:place": "", "automatic_door": "", "wheelchair": "", "amenity": "", "parking": "", "fee": "", "operator": "", "supervised": "", "name:en": "" }, "geometry": { "type": "Point", "coordinates": [ 106.8310053, -6.1334711 ] } },
{ "type": "Feature", "properties": { "full_id": "n4150995836", "osm_id": "4150995836", "osm_type": "node", "addr:city": "South Jakarta", "addr:housenumber": "", "addr:postcode": "12940", "addr:street": "Jalan HR Rasuna Said", "name": "Plaza Kuningan, Menara Selatan", "shop": "mall", "barrier": "", "entrance": "", "opening_hours": "", "phone": "", "access": "", "addr:place": "", "automatic_door": "", "wheelchair": "", "amenity": "", "parking": "", "fee": "", "operator": "", "supervised": "", "name:en": "" }, "geometry": { "type": "Point", "coordinates": [ 106.8311781, -6.2172229 ] } },
{ "type": "Feature", "properties": { "full_id": "n4152512520", "osm_id": "4152512520", "osm_type": "node", "addr:city": "Kalideres ,West Jakarta", "addr:housenumber": "", "addr:postcode": "11840", "addr:street": "Jl. Daan Mogot Km. 16", "name": "Mall Daan Mogot", "shop": "mall", "barrier": "", "entrance": "", "opening_hours": "", "phone": "", "access": "", "addr:place": "", "automatic_door": "", "wheelchair": "", "amenity": "", "parking": "", "fee": "", "operator": "", "supervised": "", "name:en": "" }, "geometry": { "type": "Point", "coordinates": [ 106.7147796, -6.1515769 ] } },
{ "type": "Feature", "properties": { "full_id": "n4152518407", "osm_id": "4152518407", "osm_type": "node", "addr:city": "North Jakarta", "addr:housenumber": "No.1", "addr:postcode": "14240", "addr:street": "Jl. Artha Gading Selatan", "name": "Mall Artha Gading", "shop": "mall", "barrier": "", "entrance": "", "opening_hours": "", "phone": "", "access": "", "addr:place": "", "automatic_door": "", "wheelchair": "", "amenity": "", "parking": "", "fee": "", "operator": "", "supervised": "", "name:en": "" }, "geometry": { "type": "Point", "coordinates": [ 106.8914384, -6.1451585 ] } },
{ "type": "Feature", "properties": { "full_id": "n4152520589", "osm_id": "4152520589", "osm_type": "node", "addr:city": "East Jakarta", "addr:housenumber": "No. 390, Kav. 10", "addr:postcode": "13330", "addr:street": "Jalan Otista Raya", "name": "MT Haryono Square (MTH Square)", "shop": "mall", "barrier": "", "entrance": "", "opening_hours": "", "phone": "", "access": "", "addr:place": "", "automatic_door": "", "wheelchair": "", "amenity": "", "parking": "", "fee": "", "operator": "", "supervised": "", "name:en": "" }, "geometry": { "type": "Point", "coordinates": [ 106.8688334, -6.2440665 ] } },
{ "type": "Feature", "properties": { "full_id": "n4152540737", "osm_id": "4152540737", "osm_type": "node", "addr:city": "North Jakarta", "addr:housenumber": "RT.18\/RW.5", "addr:postcode": "14310", "addr:street": "Jl. Danau Sunter Barat", "name": "Maple Park", "shop": "mall", "barrier": "", "entrance": "", "opening_hours": "", "phone": "", "access": "", "addr:place": "", "automatic_door": "", "wheelchair": "", "amenity": "", "parking": "", "fee": "", "operator": "", "supervised": "", "name:en": "" }, "geometry": { "type": "Point", "coordinates": [ 106.8574825, -6.1499503 ] } },
{ "type": "Feature", "properties": { "full_id": "n4152690689", "osm_id": "4152690689", "osm_type": "node", "addr:city": "Kelapa Gading, North Jakarta", "addr:housenumber": "Blok M", "addr:postcode": "14240", "addr:street": "Jl. Bulevar Kelapa Gading", "name": "La Piazza", "shop": "mall", "barrier": "", "entrance": "", "opening_hours": "", "phone": "", "access": "", "addr:place": "", "automatic_door": "", "wheelchair": "", "amenity": "", "parking": "", "fee": "", "operator": "", "supervised": "", "name:en": "" }, "geometry": { "type": "Point", "coordinates": [ 106.9063562, -6.1595135 ] } },
{ "type": "Feature", "properties": { "full_id": "n4160664209", "osm_id": "4160664209", "osm_type": "node", "addr:city": "Puri Indah, Kembangan, West Jakarta", "addr:housenumber": "", "addr:postcode": "11610", "addr:street": "Jl. Puri Indah Raya Blok U 1,", "name": "Lippo Mall Puri 2 Alternative Entrance\/ Exit", "shop": "mall", "barrier": "", "entrance": "", "opening_hours": "", "phone": "", "access": "", "addr:place": "", "automatic_door": "", "wheelchair": "", "amenity": "", "parking": "", "fee": "", "operator": "", "supervised": "", "name:en": "" }, "geometry": { "type": "Point", "coordinates": [ 106.7395077, -6.1869209 ] } },
{ "type": "Feature", "properties": { "full_id": "n4160704519", "osm_id": "4160704519", "osm_type": "node", "addr:city": "West Jakarta", "addr:housenumber": "", "addr:postcode": "11610", "addr:street": "Jl.Puri Indah Raya Boulevard Blok U1 ,", "name": "Px Pavilion", "shop": "mall", "barrier": "", "entrance": "", "opening_hours": "", "phone": "", "access": "", "addr:place": "", "automatic_door": "", "wheelchair": "", "amenity": "", "parking": "", "fee": "", "operator": "", "supervised": "", "name:en": "" }, "geometry": { "type": "Point", "coordinates": [ 106.7379433, -6.1883364 ] } },
{ "type": "Feature", "properties": { "full_id": "n4160750876", "osm_id": "4160750876", "osm_type": "node", "addr:city": "West Jakarta", "addr:housenumber": "", "addr:postcode": "11610", "addr:street": "Jalan Puri Lingkar Luar", "name": "St.Moritz", "shop": "mall", "barrier": "", "entrance": "", "opening_hours": "", "phone": "", "access": "", "addr:place": "", "automatic_door": "", "wheelchair": "", "amenity": "", "parking": "", "fee": "", "operator": "", "supervised": "", "name:en": "" }, "geometry": { "type": "Point", "coordinates": [ 106.7405525, -6.1904283 ] } },
{ "type": "Feature", "properties": { "full_id": "n4240747870", "osm_id": "4240747870", "osm_type": "node", "addr:city": "North Jakarta", "addr:housenumber": "", "addr:postcode": "14240", "addr:street": "Jl. Raya Kelapa Nias HF 3", "name": "Mahaka Square", "shop": "mall", "barrier": "", "entrance": "", "opening_hours": "", "phone": "", "access": "", "addr:place": "", "automatic_door": "", "wheelchair": "", "amenity": "", "parking": "", "fee": "", "operator": "", "supervised": "", "name:en": "" }, "geometry": { "type": "Point", "coordinates": [ 106.902724, -6.1501786 ] } },
{ "type": "Feature", "properties": { "full_id": "n4242290016", "osm_id": "4242290016", "osm_type": "node", "addr:city": "Tanah Abang, Central Jakarta", "addr:housenumber": "9", "addr:postcode": "10270", "addr:street": "Jalan Jend. Sudirman", "name": "Lotte Mart Ratu Plaza (Main Entrance)", "shop": "mall", "barrier": "", "entrance": "", "opening_hours": "", "phone": "", "access": "", "addr:place": "", "automatic_door": "", "wheelchair": "", "amenity": "", "parking": "", "fee": "", "operator": "", "supervised": "", "name:en": "" }, "geometry": { "type": "Point", "coordinates": [ 106.8014175, -6.2269146 ] } },
{ "type": "Feature", "properties": { "full_id": "n4242314085", "osm_id": "4242314085", "osm_type": "node", "addr:city": "Kembangan Selatan, West Jakarta", "addr:housenumber": "", "addr:postcode": "11610", "addr:street": "Jl. Puri Agung", "name": "Puri Indah Mall (Back Entrance)", "shop": "mall", "barrier": "", "entrance": "", "opening_hours": "", "phone": "", "access": "", "addr:place": "", "automatic_door": "", "wheelchair": "", "amenity": "", "parking": "", "fee": "", "operator": "", "supervised": "", "name:en": "" }, "geometry": { "type": "Point", "coordinates": [ 106.7348738, -6.1876634 ] } },
{ "type": "Feature", "properties": { "full_id": "n4242315785", "osm_id": "4242315785", "osm_type": "node", "addr:city": "Kelapa Gading, North Jakarta", "addr:housenumber": "1", "addr:postcode": "14240", "addr:street": "Jl. Bulevard Timur", "name": "Mall Kelapa Gading 3 Main Entrance", "shop": "mall", "barrier": "", "entrance": "", "opening_hours": "", "phone": "", "access": "", "addr:place": "", "automatic_door": "", "wheelchair": "", "amenity": "", "parking": "", "fee": "", "operator": "", "supervised": "", "name:en": "" }, "geometry": { "type": "Point", "coordinates": [ 106.9077406, -6.1569905 ] } },
{ "type": "Feature", "properties": { "full_id": "n4242315906", "osm_id": "4242315906", "osm_type": "node", "addr:city": "Kelapa Gading, North Jakarta", "addr:housenumber": "1", "addr:postcode": "14240", "addr:street": "Jl. Bulevard Timur", "name": "Mall Kelapa Gading 2 Main Entrance", "shop": "mall", "barrier": "", "entrance": "", "opening_hours": "", "phone": "", "access": "", "addr:place": "", "automatic_door": "", "wheelchair": "", "amenity": "", "parking": "", "fee": "", "operator": "", "supervised": "", "name:en": "" }, "geometry": { "type": "Point", "coordinates": [ 106.9070504, -6.1583087 ] } },
{ "type": "Feature", "properties": { "full_id": "n4242316417", "osm_id": "4242316417", "osm_type": "node", "addr:city": "Kelapa Gading, North Jakarta", "addr:housenumber": "1", "addr:postcode": "14240", "addr:street": "Jl. Bulevard Timur", "name": "Mall Kelapa Gading 1 Main Entrance", "shop": "mall", "barrier": "", "entrance": "", "opening_hours": "", "phone": "", "access": "", "addr:place": "", "automatic_door": "", "wheelchair": "", "amenity": "", "parking": "", "fee": "", "operator": "", "supervised": "", "name:en": "" }, "geometry": { "type": "Point", "coordinates": [ 106.9066252, -6.159001 ] } },
{ "type": "Feature", "properties": { "full_id": "n4242318761", "osm_id": "4242318761", "osm_type": "node", "addr:city": "Kembangan Selatan, West Jakarta", "addr:housenumber": "", "addr:postcode": "11610", "addr:street": "Jl. Puri Agung", "name": "Puri Indah Mall (Main Entrance)", "shop": "mall", "barrier": "", "entrance": "", "opening_hours": "", "phone": "", "access": "", "addr:place": "", "automatic_door": "", "wheelchair": "", "amenity": "", "parking": "", "fee": "", "operator": "", "supervised": "", "name:en": "" }, "geometry": { "type": "Point", "coordinates": [ 106.7346829, -6.1889967 ] } },
{ "type": "Feature", "properties": { "full_id": "n4244014955", "osm_id": "4244014955", "osm_type": "node", "addr:city": "Kebayoran Baru, South Jakarta", "addr:housenumber": "2", "addr:postcode": "12160", "addr:street": "Jalan Sultan Iskandarsyah 2", "name": "Pasaraya", "shop": "mall", "barrier": "", "entrance": "", "opening_hours": "", "phone": "", "access": "", "addr:place": "", "automatic_door": "", "wheelchair": "", "amenity": "", "parking": "", "fee": "", "operator": "", "supervised": "", "name:en": "" }, "geometry": { "type": "Point", "coordinates": [ 106.8040288, -6.2454046 ] } },
{ "type": "Feature", "properties": { "full_id": "n4254005153", "osm_id": "4254005153", "osm_type": "node", "addr:city": "Central Jakarta", "addr:housenumber": "Kav. 1", "addr:postcode": "10640", "addr:street": "Jalan Letjen. R. Suprapto", "name": "ITC Cempaka Mas Side Entrance", "shop": "mall", "barrier": "", "entrance": "", "opening_hours": "", "phone": "", "access": "", "addr:place": "", "automatic_door": "", "wheelchair": "", "amenity": "", "parking": "", "fee": "", "operator": "", "supervised": "", "name:en": "" }, "geometry": { "type": "Point", "coordinates": [ 106.8767854, -6.1659042 ] } },
{ "type": "Feature", "properties": { "full_id": "n4254017186", "osm_id": "4254017186", "osm_type": "node", "addr:city": "West Jakarta", "addr:housenumber": "Blok U 1", "addr:postcode": "11610", "addr:street": "Jalan Puri Lingkar Luar", "name": "Lippo Mall Puri 1 Side Entrance", "shop": "mall", "barrier": "", "entrance": "", "opening_hours": "", "phone": "", "access": "", "addr:place": "", "automatic_door": "", "wheelchair": "", "amenity": "", "parking": "", "fee": "", "operator": "", "supervised": "", "name:en": "" }, "geometry": { "type": "Point", "coordinates": [ 106.7386198, -6.1907936 ] } },
{ "type": "Feature", "properties": { "full_id": "n4254070921", "osm_id": "4254070921", "osm_type": "node", "addr:city": "South Jakarta", "addr:housenumber": "No.26", "addr:postcode": "12430", "addr:street": "Jl. RS Fatmawati", "name": "One Belpark Side Entrance", "shop": "mall", "barrier": "", "entrance": "", "opening_hours": "", "phone": "", "access": "", "addr:place": "", "automatic_door": "", "wheelchair": "", "amenity": "", "parking": "", "fee": "", "operator": "", "supervised": "", "name:en": "" }, "geometry": { "type": "Point", "coordinates": [ 106.7956539, -6.3051905 ] } },
{ "type": "Feature", "properties": { "full_id": "n4373146458", "osm_id": "4373146458", "osm_type": "node", "addr:city": "Kemang, South Jakarta", "addr:housenumber": "", "addr:postcode": "12150", "addr:street": "Kemang Village Lantai 3 â€“ A1", "name": "BOLT! Zone Kemang Village", "shop": "mall", "barrier": "", "entrance": "", "opening_hours": "", "phone": "", "access": "", "addr:place": "", "automatic_door": "", "wheelchair": "", "amenity": "", "parking": "", "fee": "", "operator": "", "supervised": "", "name:en": "" }, "geometry": { "type": "Point", "coordinates": [ 106.8125798, -6.2616412 ] } },
{ "type": "Feature", "properties": { "full_id": "n4373238608", "osm_id": "4373238608", "osm_type": "node", "addr:city": "West Jakarta", "addr:housenumber": "49", "addr:postcode": "11610", "addr:street": "Lippo Mall Puri Lt.2 Unit 49", "name": "BOLT! Zone Lippo Mall Puri", "shop": "mall", "barrier": "", "entrance": "", "opening_hours": "", "phone": "", "access": "", "addr:place": "", "automatic_door": "", "wheelchair": "", "amenity": "", "parking": "", "fee": "", "operator": "", "supervised": "", "name:en": "" }, "geometry": { "type": "Point", "coordinates": [ 106.7387165, -6.1889033 ] } },
{ "type": "Feature", "properties": { "full_id": "n4540779345", "osm_id": "4540779345", "osm_type": "node", "addr:city": "", "addr:housenumber": "", "addr:postcode": "", "addr:street": "", "name": "", "shop": "", "barrier": "", "entrance": "yes", "opening_hours": "", "phone": "", "access": "", "addr:place": "", "automatic_door": "", "wheelchair": "", "amenity": "", "parking": "", "fee": "", "operator": "", "supervised": "", "name:en": "" }, "geometry": { "type": "Point", "coordinates": [ 106.8014807, -6.2268095 ] } },
{ "type": "Feature", "properties": { "full_id": "n4683340409", "osm_id": "4683340409", "osm_type": "node", "addr:city": "", "addr:housenumber": "", "addr:postcode": "", "addr:street": "", "name": "", "shop": "", "barrier": "", "entrance": "main", "opening_hours": "", "phone": "", "access": "", "addr:place": "", "automatic_door": "yes", "wheelchair": "yes", "amenity": "", "parking": "", "fee": "", "operator": "", "supervised": "", "name:en": "" }, "geometry": { "type": "Point", "coordinates": [ 106.8007614, -6.201765 ] } },
{ "type": "Feature", "properties": { "full_id": "n5068211209", "osm_id": "5068211209", "osm_type": "node", "addr:city": "Central Jakarta", "addr:housenumber": "", "addr:postcode": "14240", "addr:street": "Jl. Boulevard Kelapa Gading", "name": "Kelapa Gading Mall 3", "shop": "mall", "barrier": "", "entrance": "", "opening_hours": "", "phone": "", "access": "", "addr:place": "", "automatic_door": "", "wheelchair": "", "amenity": "", "parking": "", "fee": "", "operator": "", "supervised": "", "name:en": "" }, "geometry": { "type": "Point", "coordinates": [ 106.9073515, -6.1576102 ] } },
{ "type": "Feature", "properties": { "full_id": "n5481679404", "osm_id": "5481679404", "osm_type": "node", "addr:city": "", "addr:housenumber": "", "addr:postcode": "", "addr:street": "", "name": "", "shop": "", "barrier": "", "entrance": "", "opening_hours": "", "phone": "", "access": "", "addr:place": "", "automatic_door": "", "wheelchair": "", "amenity": "parking", "parking": "multi-storey", "fee": "", "operator": "", "supervised": "", "name:en": "" }, "geometry": { "type": "Point", "coordinates": [ 106.9508817, -6.1723467 ] } },
{ "type": "Feature", "properties": { "full_id": "n5492715995", "osm_id": "5492715995", "osm_type": "node", "addr:city": "Kemang, South Jakarta", "addr:housenumber": "", "addr:postcode": "12730", "addr:street": "Kemang VillageJl. Pangeran Antasari No.36", "name": "Lippo Mall Kemang", "shop": "mall", "barrier": "", "entrance": "", "opening_hours": "", "phone": "", "access": "", "addr:place": "", "automatic_door": "", "wheelchair": "", "amenity": "", "parking": "", "fee": "", "operator": "", "supervised": "", "name:en": "" }, "geometry": { "type": "Point", "coordinates": [ 106.8118749, -6.260844 ] } },
{ "type": "Feature", "properties": { "full_id": "n5899180195", "osm_id": "5899180195", "osm_type": "node", "addr:city": "", "addr:housenumber": "", "addr:postcode": "", "addr:street": "", "name": "", "shop": "", "barrier": "", "entrance": "entrance", "opening_hours": "", "phone": "", "access": "", "addr:place": "", "automatic_door": "", "wheelchair": "", "amenity": "", "parking": "", "fee": "", "operator": "", "supervised": "", "name:en": "" }, "geometry": { "type": "Point", "coordinates": [ 106.7897798, -6.1775881 ] } },
{ "type": "Feature", "properties": { "full_id": "n5909244751", "osm_id": "5909244751", "osm_type": "node", "addr:city": "", "addr:housenumber": "", "addr:postcode": "", "addr:street": "", "name": "Lippo Mall Puri 1 Parkson Side Entrance", "shop": "", "barrier": "", "entrance": "yes", "opening_hours": "", "phone": "", "access": "", "addr:place": "", "automatic_door": "", "wheelchair": "", "amenity": "", "parking": "", "fee": "", "operator": "", "supervised": "", "name:en": "" }, "geometry": { "type": "Point", "coordinates": [ 106.7399898, -6.1899206 ] } },
{ "type": "Feature", "properties": { "full_id": "n5909244752", "osm_id": "5909244752", "osm_type": "node", "addr:city": "", "addr:housenumber": "", "addr:postcode": "", "addr:street": "", "name": "Lippo Mall Puri 1 Main Entrance", "shop": "", "barrier": "", "entrance": "yes", "opening_hours": "", "phone": "", "access": "", "addr:place": "", "automatic_door": "", "wheelchair": "", "amenity": "", "parking": "", "fee": "", "operator": "", "supervised": "", "name:en": "" }, "geometry": { "type": "Point", "coordinates": [ 106.7385249, -6.1902466 ] } },
{ "type": "Feature", "properties": { "full_id": "n6134744431", "osm_id": "6134744431", "osm_type": "node", "addr:city": "", "addr:housenumber": "", "addr:postcode": "", "addr:street": "", "name": "Parkir Gedung \/ Basement Central Park Mall", "shop": "", "barrier": "", "entrance": "", "opening_hours": "", "phone": "", "access": "yes", "addr:place": "", "automatic_door": "", "wheelchair": "", "amenity": "parking", "parking": "multi-storey", "fee": "yes", "operator": "PT. Securindo Packatama Indonesia", "supervised": "yes", "name:en": "" }, "geometry": { "type": "Point", "coordinates": [ 106.7891767, -6.1781275 ] } },
{ "type": "Feature", "properties": { "full_id": "n6427013130", "osm_id": "6427013130", "osm_type": "node", "addr:city": "", "addr:housenumber": "", "addr:postcode": "", "addr:street": "", "name": "Sarinah (Pintu Utama)", "shop": "", "barrier": "", "entrance": "main", "opening_hours": "", "phone": "", "access": "yes", "addr:place": "", "automatic_door": "", "wheelchair": "", "amenity": "", "parking": "", "fee": "", "operator": "", "supervised": "", "name:en": "Sarinah (Main Entrance)" }, "geometry": { "type": "Point", "coordinates": [ 106.8233457, -6.1877167 ] } },
{ "type": "Feature", "properties": { "full_id": "n8322497394", "osm_id": "8322497394", "osm_type": "node", "addr:city": "", "addr:housenumber": "", "addr:postcode": "", "addr:street": "", "name": "", "shop": "", "barrier": "", "entrance": "", "opening_hours": "", "phone": "", "access": "", "addr:place": "", "automatic_door": "", "wheelchair": "", "amenity": "parking_entrance", "parking": "", "fee": "", "operator": "", "supervised": "", "name:en": "" }, "geometry": { "type": "Point", "coordinates": [ 106.9517191, -6.1734201 ] } },
{ "type": "Feature", "properties": { "full_id": "n8606149494", "osm_id": "8606149494", "osm_type": "node", "addr:city": "", "addr:housenumber": "", "addr:postcode": "", "addr:street": "", "name": "", "shop": "", "barrier": "", "entrance": "", "opening_hours": "", "phone": "", "access": "", "addr:place": "", "automatic_door": "", "wheelchair": "", "amenity": "parking_entrance", "parking": "", "fee": "", "operator": "", "supervised": "", "name:en": "" }, "geometry": { "type": "Point", "coordinates": [ 106.7908195, -6.1269978 ] } },
{ "type": "Feature", "properties": { "full_id": "n9019480850", "osm_id": "9019480850", "osm_type": "node", "addr:city": "", "addr:housenumber": "", "addr:postcode": "", "addr:street": "", "name": "", "shop": "", "barrier": "", "entrance": "", "opening_hours": "", "phone": "", "access": "", "addr:place": "", "automatic_door": "", "wheelchair": "", "amenity": "parking_entrance", "parking": "", "fee": "", "operator": "", "supervised": "", "name:en": "" }, "geometry": { "type": "Point", "coordinates": [ 106.7802559, -6.1091687 ] } },
{ "type": "Feature", "properties": { "full_id": "n9022661066", "osm_id": "9022661066", "osm_type": "node", "addr:city": "", "addr:housenumber": "", "addr:postcode": "", "addr:street": "", "name": "", "shop": "", "barrier": "", "entrance": "", "opening_hours": "", "phone": "", "access": "", "addr:place": "", "automatic_door": "", "wheelchair": "", "amenity": "parking_entrance", "parking": "", "fee": "", "operator": "", "supervised": "", "name:en": "" }, "geometry": { "type": "Point", "coordinates": [ 106.8212483, -6.1945436 ] } },
{ "type": "Feature", "properties": { "full_id": "n9066589382", "osm_id": "9066589382", "osm_type": "node", "addr:city": "", "addr:housenumber": "", "addr:postcode": "", "addr:street": "", "name": "", "shop": "", "barrier": "", "entrance": "", "opening_hours": "", "phone": "", "access": "", "addr:place": "", "automatic_door": "", "wheelchair": "", "amenity": "parking", "parking": "multi-storey", "fee": "", "operator": "", "supervised": "", "name:en": "" }, "geometry": { "type": "Point", "coordinates": [ 106.9507989, -6.172937 ] } },
{ "type": "Feature", "properties": { "full_id": "n9507377928", "osm_id": "9507377928", "osm_type": "node", "addr:city": "", "addr:housenumber": "", "addr:postcode": "", "addr:street": "", "name": "", "shop": "", "barrier": "", "entrance": "", "opening_hours": "", "phone": "", "access": "", "addr:place": "", "automatic_door": "", "wheelchair": "", "amenity": "parking_entrance", "parking": "", "fee": "", "operator": "", "supervised": "", "name:en": "" }, "geometry": { "type": "Point", "coordinates": [ 106.7994267, -6.2644587 ] } },
{ "type": "Feature", "properties": { "full_id": "n9544503817", "osm_id": "9544503817", "osm_type": "node", "addr:city": "", "addr:housenumber": "", "addr:postcode": "", "addr:street": "", "name": "", "shop": "", "barrier": "", "entrance": "", "opening_hours": "", "phone": "", "access": "", "addr:place": "", "automatic_door": "", "wheelchair": "", "amenity": "parking_entrance", "parking": "", "fee": "", "operator": "", "supervised": "", "name:en": "" }, "geometry": { "type": "Point", "coordinates": [ 106.7833951, -6.2203268 ] } },
{ "type": "Feature", "properties": { "full_id": "n9555672917", "osm_id": "9555672917", "osm_type": "node", "addr:city": "", "addr:housenumber": "", "addr:postcode": "", "addr:street": "", "name": "Prada Menteng Mall", "shop": "mall", "barrier": "", "entrance": "", "opening_hours": "", "phone": "", "access": "", "addr:place": "", "automatic_door": "", "wheelchair": "", "amenity": "", "parking": "", "fee": "", "operator": "", "supervised": "", "name:en": "" }, "geometry": { "type": "Point", "coordinates": [ 106.8419929, -6.198406 ] } },
{ "type": "Feature", "properties": { "full_id": "n9562817362", "osm_id": "9562817362", "osm_type": "node", "addr:city": "", "addr:housenumber": "", "addr:postcode": "", "addr:street": "", "name": "", "shop": "", "barrier": "", "entrance": "", "opening_hours": "", "phone": "", "access": "", "addr:place": "", "automatic_door": "", "wheelchair": "", "amenity": "parking_entrance", "parking": "", "fee": "", "operator": "", "supervised": "", "name:en": "" }, "geometry": { "type": "Point", "coordinates": [ 106.8788105, -6.2232485 ] } },
{ "type": "Feature", "properties": { "full_id": "n9562817363", "osm_id": "9562817363", "osm_type": "node", "addr:city": "", "addr:housenumber": "", "addr:postcode": "", "addr:street": "", "name": "", "shop": "", "barrier": "", "entrance": "", "opening_hours": "", "phone": "", "access": "", "addr:place": "", "automatic_door": "", "wheelchair": "", "amenity": "parking_entrance", "parking": "", "fee": "", "operator": "", "supervised": "", "name:en": "" }, "geometry": { "type": "Point", "coordinates": [ 106.8783999, -6.2232684 ] } },
{ "type": "Feature", "properties": { "full_id": "n9579476317", "osm_id": "9579476317", "osm_type": "node", "addr:city": "", "addr:housenumber": "", "addr:postcode": "", "addr:street": "", "name": "Aeon Mall", "shop": "mall", "barrier": "", "entrance": "", "opening_hours": "", "phone": "", "access": "", "addr:place": "", "automatic_door": "", "wheelchair": "", "amenity": "", "parking": "", "fee": "", "operator": "Sinarmas Land", "supervised": "", "name:en": "" }, "geometry": { "type": "Point", "coordinates": [ 106.840602, -6.3058963 ] } },
{ "type": "Feature", "properties": { "full_id": "n9579476318", "osm_id": "9579476318", "osm_type": "node", "addr:city": "", "addr:housenumber": "", "addr:postcode": "", "addr:street": "", "name": "Aeon Mall", "shop": "mall", "barrier": "", "entrance": "", "opening_hours": "", "phone": "", "access": "", "addr:place": "", "automatic_door": "", "wheelchair": "", "amenity": "", "parking": "", "fee": "", "operator": "Sinarmas Land", "supervised": "", "name:en": "" }, "geometry": { "type": "Point", "coordinates": [ 106.8401843, -6.3065311 ] } }
]
}
